#cP2023  2 26  0  0  0.00000000      96 ORBIT IGS20 HLM  IGS
## 2251      0.00000000   900.00000000 60001 0.0000000000000
+   32   G01G02G03G04G05G06G07G08G09G10G11G12G13G14G15G16G17
+        G18G19G20G21G22G23G24G25G26G27G28G29G30G31G32  0  0
+          0  0  0  0  0  0  0  0  0  0  0  0  0  0  0  0  0
+          0  0  0  0  0  0  0  0  0  0  0  0  0  0  0  0  0
+          0  0  0  0  0  0  0  0  0  0  0  0  0  0  0  0  0
++         2  2  2  3  2  2  2  2  2  2  2  2  2  2  2  2  2
++         2  2  2  2  3  2  2  2  2  2  3  2  2  2  2  0  0
++         0  0  0  0  0  0  0  0  0  0  0  0  0  0  0  0  0
++         0  0  0  0  0  0  0  0  0  0  0  0  0  0  0  0  0
++         0  0  0  0  0  0  0  0  0  0  0  0  0  0  0  0  0
%c G  cc GPS ccc cccc cccc cccc cccc ccccc ccccc ccccc ccccc
%c cc cc ccc ccc cccc cccc cccc cccc ccccc ccccc ccccc ccccc
%f  1.2500000  1.025000000  0.00000000000  0.000000000000000
%f  0.0000000  0.000000000  0.00000000000  0.000000000000000
%i    0    0    0    0      0      0      0      0         0
%i    0    0    0    0      0      0      0      0         0
/* RAPID ORBIT COMBINATION FROM WEIGHTED AVERAGE OF:        
/* cod emr esa gfz grg jpl ngs sio usn whu                  
/* REFERENCED TO IGS TIME (IGST) AND TO WEIGHTED MEAN POLE: 
/* PCV:IGS20_2233 OL/AL:FES2014b NONE     Y  ORB:CMB CLK:CMB
*  2023  2 26 17 15  0.00000000
PG01   9645.196772 -19500.708967 -15301.071140    208.276592  5  8  5  89       
PG02  -5166.362189  20344.292739  17039.936384   -618.149611  6  5  4 105       
PG03   -234.261404 -15824.269939 -21472.158111   -358.057072  3  7  4  99       
PG04    757.109493 -26116.702455  -4423.215819    -18.960606  6 12  7  88       
PG05 -16140.489119   8272.792555  19274.617776   -117.418798  7  8  7  85       
PG06 -20386.937364   1255.065741 -16961.715400    576.577623  3  6  4  95       
PG07  -4854.305050 -15471.213365  21398.330416    233.585584  3  7  6  93       
PG08   7755.543460 -20089.586396  15222.291227   -110.378735  5  7  5  64       
PG09  -7902.724416 -24583.121841   6040.810453   -210.869353  6  6  3 102       
PG10  24070.851852  11497.449659   1893.649505    -26.361327  5  6  4  99       
PG11 -23374.243035  11373.816979  -5359.117112   -115.007725  5 10  1  80       
PG12  -2917.762618  15381.352389 -21747.983758   -345.084225  8  6  3  98       
PG13 -12946.268808  13484.437862  18614.974751    482.316914  7  8  6  86       
PG14 -22538.233837 -13602.291585   4036.269662    -17.623145  5  6  6 113       
PG15  -5278.334162  21326.502980  14281.602319     16.888980  7  7  6 104       
PG16  18907.079223  -4119.177561  18089.792075   -518.229123  5  7  5  82       
PG17 -12491.572768 -15619.184055 -16995.135445    702.416196  7 10  2  95       
PG18   7905.288393  12706.391185  21941.940530   -157.094750  3  6  6 101       
PG19 -14831.959369  -4951.355318 -21733.497821    282.950163  4  6  5  83       
PG20 -23588.490610   2998.495989  11653.096900    448.293202  5  5  6  91       
PG21  15618.225010 -19827.132994  -6163.957306    154.183932  3  7  6  68       
PG22  14994.137933    812.652907 -21475.053100    434.891074  9  9  6 104       
PG23  17370.867652  15874.112396  12461.706748      7.926696  6  5  4  80       
PG24 -11556.566985  21230.990581 -10862.704130    -90.078280  5  7  5  96       
PG25   8388.616834  17603.495435 -18468.829500    423.375898  3  6  7  70       
PG26  25513.235841   3255.010503   7187.591323    241.771930  4  6  5  89       
PG27  13158.002250  -9423.088139  20736.378848     93.169398  5  5  7  97       
PG28  19549.996419    285.681922 -18005.151336     26.932131  7  6  9 108       
PG29   3421.374818  26090.476052   3225.067372   -588.198979  5  7  5  71       
PG30 -16370.696080  -6315.697131  20102.385633   -528.929296  6  5  4 103       
PG31  21881.267507  -2380.915204 -15351.919460   -210.285894  6  6  7  97       
PG32  14620.305036  12293.428691 -18369.851517   -407.949177  6  6  5 103       
*  2023  2 26 17 30  0.00000000
PG01  10980.133117 -20359.898604 -13040.348244    208.273012  4  8  5  87       
PG02  -6507.680483  21437.496788  15072.382796   -618.147355  6  6  4 112       
PG03   2066.218463 -14971.219846 -21972.602712   -358.052172  3  7  3 107       
PG04   1085.784778 -25484.814957  -7185.344788    -18.953085  6 12  7  86       
PG05 -18138.031316   7473.606976  17790.931539   -117.420341  7  8  7  87       
PG06 -18851.393168    -95.662888 -18681.113983    576.580941  3  6  4 100       
PG07  -2983.160110 -16858.879045  20620.193825    233.579075  4  7  6  99       
PG08   8286.349450 -18279.909839  17132.826732   -110.381370  4  8  5  80       
PG09  -7735.275204 -25163.327535   3258.569339   -210.862831  6  7  4 108       
PG10  23673.967288  11540.028121   4730.809882    -26.362685  5  6  4 109       
PG11 -22888.844787  10730.690301  -8085.119454   -115.017374  4  9  1  98       
PG12  -5137.627224  14363.456147 -22026.165413   -345.088204  8  6  4 111       
PG13 -13108.032312  11243.234042  19947.991899    482.322420  7  8  6  96       
PG14 -21865.617053 -13609.993718   6771.241683    -17.614617  5  6  6 109       
PG15  -6058.427718  19644.845126  16218.874496     16.891735  7  6  6 118       
PG16  20652.998320  -3117.911003  16367.045116   -518.227653  5  7  6  95       
PG17 -12510.855502 -17532.545279 -15043.550032    702.418201  7 10  3  99       
PG18   5923.190132  14213.283885  21627.410734   -157.109189  3  7  6 108       
PG19 -14910.344293  -7339.376240 -21008.403422    282.954772  4  6  5  73       
PG20 -24705.674455   2493.455400   9168.946481    448.290675  5  6  6  74       
PG21  16287.004111 -20029.275683  -3328.673008    154.184314  2  6  6  96       
PG22  15153.820775   3338.412340 -21138.065849    434.897577  9  9  7  97       
PG23  15856.280670  15517.173816  14713.795683      7.928300  6  6  5  96       
PG24 -12548.748035  21744.594366  -8338.831507    -90.092420  4  7  5 109       
PG25   6357.448536  16967.743525 -19823.180126    423.378761  4  6  7  81       
PG26  26073.783650   3737.150589   4511.489221    241.772104  4  6  5 106       
PG27  13622.324667  -6999.421981  21415.095609     93.161401  6  4  7 103       
PG28  18020.976660   1785.025337 -19458.584646     26.943732  7  6  9 102       
PG29   3226.588495  26316.319526    340.403937   -588.200604  5  7  5  98       
PG30 -14594.799781  -7826.340770  20902.731461   -528.928075  6  5  4  99       
PG31  20532.787304  -1147.968637 -17220.841445   -210.286616  6  6  7  80       
PG32  14810.537576  14320.299565 -16706.369677   -407.959398  6  7  6 104       
*  2023  2 26 17 45  0.00000000
PG01  12066.867579 -21114.788982 -10555.089338    208.269405  3  7  6  92       
PG02  -7632.929346  22433.443298  12857.951228   -618.145094  6  7  5 108       
PG03   4444.845813 -14235.309420 -22099.545894   -358.047260  4  6  3  99       
PG04   1501.989443 -24569.397557  -9822.973703    -18.945564  5 12  8  92       
PG05 -19993.219202   6829.889415  15998.413590   -117.421321  7  8  8  84       
PG06 -17262.388614  -1650.498594 -20078.311320    576.584295  3  6  4  98       
PG07  -1258.989755 -18272.649534  19496.721054    233.572634  5  7  6  92       
PG08   8955.878774 -16306.620945  18742.766738   -110.384145  5  7  5  77       
PG09  -7523.699103 -25441.407082    420.020248   -210.856299  5  7  4 105       
PG10  22980.726966  11509.416877   7488.350552    -26.364188  5  6  3 104       
PG11 -22205.364433   9871.588580 -10671.664833   -115.026979  3  9  2  90       
PG12  -7419.499056  13462.154263 -21935.113374   -345.092369  8  6  4 101       
PG13 -13398.288552   8882.518965  20930.884965    482.327353  7  8  5  98       
PG14 -20909.847813 -13550.586423   9390.586559    -17.606123  5  6  6 114       
PG15  -6986.977834  17806.825383  17864.909573     16.894639  7  6  6 124       
PG16  22250.800078  -2295.915032  14361.836001   -518.225949  5  7  6  97       
PG17 -12596.727792 -19202.329833 -12824.469608    702.420466  6 10  4 100       
PG18   4066.974477  15788.412941  20940.278260   -157.123620  3  7  7 115       
PG19 -15109.128739  -9617.500292 -19930.891530    282.959465  3  7  6  96       
PG20 -25559.075755   2085.255895   6525.381365    448.288378  5  7  7  89       
PG21  16714.854255 -20022.971497   -432.474569    154.183040  2  5  7  69       
PG22  15434.546384   5789.851870 -20423.151384    434.904408  9  9  7  98       
PG23  14092.759999  15176.906819  16714.404217      7.929934  6  6  5 101       
PG24 -13319.686670  22088.418427  -5669.753442    -90.106579  4  7  5  93       
PG25   4168.556585  16399.569527 -20847.561868    423.381592  4  6  7  65       
PG26  26361.981856   4116.368720   1759.138092    241.772260  4  6  4 107       
PG27  14224.470372  -4552.136749  21715.531534     93.153430  6  3  6  92       
PG28  16468.635068   3463.887282 -20577.985284     26.955319  7  6  9  99       
PG29   2998.791114  26227.357268  -2550.152247   -588.203034  6  8  4  90       
PG30 -12840.570316  -9469.445487  21347.733171   -528.926840  6  5  4  99       
PG31  19104.147975    281.753079 -18802.007655   -210.287536  7  5  7  86       
PG32  15060.549413  16132.121120 -14754.204747   -407.969594  6  7  6 103       
EOF
